NORAD_CAT_ID,OBJECT_NAME,OBJECT_TYPE,EPOCH,MEAN_MOTION,ECCENTRICITY,INCLINATION,RA_OF_ASC_NODE,ARG_OF_PERICENTER,MEAN_ANOMALY,BSTAR,MEAN_MOTION_DOT,MEAN_MOTION_DDOT,TLE_LINE0,TLE_LINE1,TLE_LINE2,SEMIMAJOR_AXIS,PERIOD,APOGEE,PERIGEE,DECAYED
53983.0,STARLINK-5103,PAYLOAD,2023-04-01 20:31:16,15.08830849,8.25e-05,53.2172,340.0993,66.8071,293.3008,-0.00015578,-2.765e-05,0.0,0 STARLINK-5103,1 53983U 22125V   23091.85505291 -.00002765  00000-0 -15578-3 0  9991,2 53983  53.2172 340.0993 0000825  66.8071 293.3008 15.08830849 27641,6917.908,95.438,540.344,539.203,0.0
53983.0,STARLINK-5103,PAYLOAD,2023-04-01 23:42:02,15.08840585,6.78e-05,53.2173,339.505,91.997,268.11,-3.8703e-05,-9.04e-06,0.0,0 STARLINK-5103,1 53983U 22125V   23091.98752841 -.00000904  00000-0 -38703-4 0  9999,2 53983  53.2173 339.5050 0000678  91.9970 268.1100 15.08840585 27733,6917.879,95.438,540.213,539.275,0.0
53983.0,STARLINK-5103,PAYLOAD,2023-04-02 21:57:26,15.08845092,6.69e-05,53.2167,335.342,78.6159,281.4908,0.00021687,3.166e-05,0.0,0 STARLINK-5103,1 53983U 22125V   23092.91488911  .00003166  00000-0  21687-3 0  9990,2 53983  53.2167 335.3420 0000669  78.6159 281.4908 15.08845092 27802,6917.865,95.437,540.193,539.267,0.0
53983.0,STARLINK-5103,PAYLOAD,2023-04-02 23:32:49,15.08848492,7.05e-05,53.2167,335.0446,81.8024,278.3048,0.000288,4.3e-05,0.0,0 STARLINK-5103,1 53983U 22125V   23092.98112798  .00004300  00000-0  28800-3 0  9999,2 53983  53.2167 335.0446 0000705  81.8024 278.3048 15.08848492 27880,6917.854,95.437,540.207,539.232,0.0
53983.0,STARLINK-5103,PAYLOAD,2023-04-03 18:37:27,15.08841133,6.87e-05,53.2169,331.4768,86.638,273.4691,0.00010821,1.435e-05,0.0,0 STARLINK-5103,1 53983U 22125V   23093.77601168  .00001435  00000-0  10821-3 0  9991,2 53983  53.2169 331.4768 0000687  86.6380 273.4691 15.08841133 28006,6917.877,95.437,540.217,539.267,0.0
53983.0,STARLINK-5103,PAYLOAD,2023-04-04 00:58:59,15.08849343,7e-05,53.2165,330.2867,98.0493,262.0579,0.00025372,3.754e-05,0.0,0 STARLINK-5103,1 53983U 22125V   23094.04096819  .00003754  00000-0  25372-3 0  9996,2 53983  53.2165 330.2867 0000700  98.0493 262.0579 15.08849343 28041,6917.852,95.437,540.201,539.233,0.0
53983.0,STARLINK-5103,PAYLOAD,2023-04-04 21:39:00,15.08840523,9.13e-05,53.2164,326.4185,136.0288,224.0777,3.1413e-05,2.12e-06,0.0,0 STARLINK-5103,1 53983U 22125V   23094.90209014  .00000212  00000-0  31413-4 0  9994,2 53983  53.2164 326.4185 0000913 136.0288 224.0777 15.08840523 28107,6917.879,95.438,540.375,539.112,0.0
53983.0,STARLINK-5103,PAYLOAD,2023-04-04 23:14:23,15.08840687,9.27e-05,53.2165,326.1212,137.1797,222.9268,4.8339e-05,4.82e-06,0.0,0 STARLINK-5103,1 53983U 22125V   23094.96833007  .00000482  00000-0  48339-4 0  9999,2 53983  53.2165 326.1212 0000927 137.1797 222.9268 15.08840687 28189,6917.878,95.438,540.385,539.102,0.0
53983.0,STARLINK-5103,PAYLOAD,2023-04-05 08:46:42,15.08841814,8e-05,53.2166,324.3374,101.8199,258.2883,0.00011921,1.61e-05,0.0,0 STARLINK-5103,1 53983U 22125V   23095.36577172  .00001610  00000-0  11921-3 0  9992,2 53983  53.2166 324.3374 0000800 101.8199 258.2883 15.08841814 28170,6917.875,95.437,540.293,539.186,0.0
53983.0,STARLINK-5103,PAYLOAD,2023-04-05 21:29:47,15.08842278,8.19e-05,53.217,321.9583,97.6713,262.4372,8.8195e-05,1.116e-05,0.0,0 STARLINK-5103,1 53983U 22125V   23095.89569289  .00001116  00000-0  88195-4 0  9999,2 53983  53.2170 321.9583 0000819  97.6713 262.4372 15.08842278 28258,6917.873,95.437,540.305,539.172,0.0
53983.0,STARLINK-5103,PAYLOAD,2023-04-06 00:40:34,15.08845032,8.92e-05,53.2167,321.3633,99.4489,260.6604,0.00013185,1.812e-05,0.0,0 STARLINK-5103,1 53983U 22125V   23096.02817148  .00001812  00000-0  13185-3 0  9994,2 53983  53.2167 321.3633 0000892  99.4489 260.6604 15.08845032 28344,6917.865,95.437,540.347,539.113,0.0
53983.0,STARLINK-5103,PAYLOAD,2023-04-06 14:59:02,15.08840253,7.7e-05,53.2157,318.688,89.118,270.99,0.00010395,1.367e-05,0.0,0 STARLINK-5103,1 53983U 22125V   23096.62433402  .00001367  00000-0  10395-3 0  9992,2 53983  53.2157 318.6880 0000770  89.1180 270.9900 15.08840253 28438,6917.88,95.438,540.277,539.212,0.0
53983.0,STARLINK-5103,PAYLOAD,2023-04-06 21:20:34,15.0884554,8e-05,53.215,317.4975,94.1526,265.9558,0.000158,2.228e-05,0.0,0 STARLINK-5103,1 53983U 22125V   23096.88929057  .00002228  00000-0  15800-3 0  9999,2 53983  53.2150 317.4975 0000800  94.1526 265.9558 15.08845540 28401,6917.863,95.437,540.282,539.175,0.0
53983.0,STARLINK-5103,PAYLOAD,2023-04-07 18:00:35,15.08839699,8.57e-05,53.2151,313.634,82.6636,277.4454,9.1028e-05,1.161e-05,0.0,0 STARLINK-5103,1 53983U 22125V   23097.75041450  .00001161  00000-0  91028-4 0  9990,2 53983  53.2151 313.6340 0000857  82.6636 277.4454 15.08839699 28605,6917.881,95.438,540.339,539.153,0.0
53983.0,STARLINK-5103,PAYLOAD,2023-04-08 00:22:08,15.08843747,8.28e-05,53.215,312.4446,82.2826,277.826,7.6724e-05,9.34e-06,0.0,0 STARLINK-5103,1 53983U 22125V   23098.01537183  .00000934  00000-0  76724-4 0  9996,2 53983  53.2150 312.4446 0000828  82.2826 277.8260 15.08843747 28577,6917.869,95.437,540.307,539.161,0.0
53983.0,STARLINK-5103,PAYLOAD,2023-04-08 21:02:09,15.08839356,8.24e-05,53.2154,308.5774,80.6191,279.4894,4.9308e-05,4.97e-06,0.0,0 STARLINK-5103,1 53983U 22125V   23098.87649718  .00000497  00000-0  49308-4 0  9990,2 53983  53.2154 308.5774 0000824  80.6191 279.4894 15.08839356 28778,6917.882,95.438,540.317,539.177,0.0
53983.0,STARLINK-5103,PAYLOAD,2023-04-09 12:56:00,15.08837065,8.27e-05,53.2162,305.605,82.5349,277.5737,7.6174e-05,9.25e-06,0.0,0 STARLINK-5103,1 53983U 22125V   23099.53890004  .00000925  00000-0  76174-4 0  9997,2 53983  53.2162 305.6050 0000827  82.5349 277.5737 15.08837065 28805,6917.889,95.438,540.326,539.182,0.0
53983.0,STARLINK-5103,PAYLOAD,2023-04-09 20:52:56,15.08841864,7.87e-05,53.2161,304.118,88.4504,271.6578,0.00011201,1.495e-05,0.0,0 STARLINK-5103,1 53983U 22125V   23099.87009720  .00001495  00000-0  11201-3 0  9993,2 53983  53.2161 304.1180 0000787  88.4504 271.6578 15.08841864 28850,6917.875,95.437,540.284,539.195,0.0
53983.0,STARLINK-5103,PAYLOAD,2023-04-10 00:03:42,15.08844934,7.97e-05,53.2164,303.5228,80.8212,279.2871,0.00013434,1.851e-05,0.0,0 STARLINK-5103,1 53983U 22125V   23100.00257494  .00001851  00000-0  13434-3 0  9990,2 53983  53.2164 303.5228 0000797  80.8212 279.2871 15.08844934 28943,6917.865,95.437,540.282,539.179,0.0
53983.0,STARLINK-5103,PAYLOAD,2023-04-11 06:16:02,15.08842904,8.24e-05,53.2156,297.8723,87.3952,272.7135,7.2382e-05,8.65e-06,0.0,0 STARLINK-5103,1 53983U 22125V   23101.26113536  .00000865  00000-0  72382-4 0  9999,2 53983  53.2156 297.8723 0000824  87.3952 272.7135 15.08842904 29131,6917.872,95.437,540.307,539.166,0.0
53983.0,STARLINK-5103,PAYLOAD,2023-04-11 12:37:33,15.08918062,6.36e-05,53.2166,296.6825,118.5983,241.5074,-0.001126,-0.00018201,0.0,0 STARLINK-5103,1 53983U 22125V   23101.52608704 -.00018201  00000-0 -11260-2 0  9995,2 53983  53.2166 296.6825 0000636 118.5983 241.5074 15.08918062 29106,6917.642,95.433,539.947,539.067,0.0
53983.0,STARLINK-5103,PAYLOAD,2023-04-11 20:34:30,15.08844774,8.65e-05,53.2168,295.1955,88.7085,271.4007,5.4765e-05,5.84e-06,0.0,0 STARLINK-5103,1 53983U 22125V   23101.85729596  .00000584  00000-0  54765-4 0  9996,2 53983  53.2168 295.1955 0000865  88.7085 271.4007 15.08844774 29152,6917.866,95.437,540.329,539.132,0.0
53983.0,STARLINK-5103,PAYLOAD,2023-04-12 12:28:22,15.08831924,9.09e-05,53.2163,292.222,80.8149,279.2946,9.052e-05,1.153e-05,0.0,0 STARLINK-5103,1 53983U 22125V   23102.51970041  .00001153  00000-0  90520-4 0  9995,2 53983  53.2163 292.2220 0000909  80.8149 279.2946 15.08831924 29255,6917.905,95.438,540.399,539.141,0.0
53983.0,STARLINK-5103,PAYLOAD,2023-04-12 18:49:54,15.08838332,8.81e-05,53.2164,291.0324,81.5976,278.5116,0.00015588,2.194e-05,0.0,0 STARLINK-5103,1 53983U 22125V   23102.78465684  .00002194  00000-0  15588-3 0  9992,2 53983  53.2164 291.0324 0000881  81.5976 278.5116 15.08838332 29366,6917.885,95.438,540.36,539.141,0.0
53983.0,STARLINK-5103,PAYLOAD,2023-04-13 09:08:22,15.0883971,9.39e-05,53.2155,288.3564,73.2388,286.8707,0.00020291,2.943e-05,0.0,0 STARLINK-5103,1 53983U 22125V   23103.38082125  .00002943  00000-0  20291-3 0  9993,2 53983  53.2155 288.3564 0000939  73.2388 286.8707 15.08839710 29381,6917.881,95.438,540.396,539.097,0.0
53983.0,STARLINK-5103,PAYLOAD,2023-04-13 20:16:04,15.08851795,9.03e-05,53.2156,286.2747,72.0098,288.0992,0.00053675,8.268e-05,0.0,0 STARLINK-5103,1 53983U 22125V   23103.84449793  .00008268  00000-0  53675-3 0  9990,2 53983  53.2156 286.2747 0000903  72.0098 288.0992 15.08851795 29521,6917.844,95.437,540.334,539.085,0.0
53983.0,STARLINK-5103,PAYLOAD,2023-04-14 08:59:09,15.08839559,9.51e-05,53.2155,283.8958,75.4223,284.6875,9.8536e-05,1.281e-05,0.0,0 STARLINK-5103,1 53983U 22125V   23104.37442065  .00001281  00000-0  98536-4 0  9998,2 53983  53.2155 283.8958 0000951  75.4223 284.6875 15.08839559 29602,6917.882,95.438,540.405,539.089,0.0
53983.0,STARLINK-5103,PAYLOAD,2023-04-14 12:09:56,15.08841072,0.0001002,53.2155,283.3011,77.9773,282.1331,0.0001514,2.123e-05,0.0,0 STARLINK-5103,1 53983U 22125V   23104.50690072  .00002123  00000-0  15140-3 0  9991,2 53983  53.2155 283.3011 0001002  77.9773 282.1331 15.08841072 29559,6917.877,95.437,540.435,539.049,0.0
53983.0,STARLINK-5103,PAYLOAD,2023-04-14 23:17:37,15.08856089,0.0001035,53.2155,281.2197,78.1647,281.9461,0.00079287,0.00012359,0.0,0 STARLINK-5103,1 53983U 22125V   23104.97057716  .00012359  00000-0  79287-3 0  9998,2 53983  53.2155 281.2197 0001035  78.1647 281.9461 15.08856089 29690,6917.831,95.437,540.412,538.98,0.0
53983.0,STARLINK-5103,PAYLOAD,2023-04-15 10:25:20,15.08832667,0.0001104,53.2153,279.1381,96.769,263.3427,0.00025168,3.719e-05,0.0,0 STARLINK-5103,1 53983U 22125V   23105.43426421  .00003719  00000-0  25168-3 0  9992,2 53983  53.2153 279.1381 0001104  96.7690 263.3427 15.08832667 29760,6917.903,95.438,540.532,539.004,0.0
